{
  "norad_id": 60557,
  "name": "TROOP-F2",
  "history": [
    {
      "epoch": "2026-03-28T18:14:56.419872Z",
      "apogee_km": 340.44670886641325,
      "perigee_km": 336.42012490149136,
      "latitude_deg": -2.1771746007201043e-05,
      "longitude_deg": 79.87372409678854,
      "height_km": 343.3854981557792,
      "semi_major_axis_km": 6716.570416883952,
      "eccentricity": 0.00029975,
      "inclination_deg": 97.3548,
      "raan_deg": 179.785,
      "arg_perigee_deg": 207.8081,
      "mean_anomaly_deg": 152.3025,
      "mean_motion_rev_day": 15.77180517
    },
    {
      "epoch": "2026-03-29T04:54:26.301312Z",
      "apogee_km": 339.7517313016624,
      "perigee_km": 335.8135160343436,
      "latitude_deg": 8.577527064936184e-06,
      "longitude_deg": -79.96670663166647,
      "height_km": 342.6930445548765,
      "semi_major_axis_km": 6715.919623668003,
      "eccentricity": 0.0002932,
      "inclination_deg": 97.3545,
      "raan_deg": 180.2568,
      "arg_perigee_deg": 207.9855,
      "mean_anomaly_deg": 152.1254,
      "mean_motion_rev_day": 15.77409773
    },
    {
      "epoch": "2026-03-30T05:15:49.429440Z",
      "apogee_km": 338.3203572906996,
      "perigee_km": 334.51709863526594,
      "latitude_deg": 4.581012377755451e-05,
      "longitude_deg": -85.2345607619433,
      "height_km": 341.25434543815953,
      "semi_major_axis_km": 6714.555727962982,
      "eccentricity": 0.00028321,
      "inclination_deg": 97.3539,
      "raan_deg": 181.3356,
      "arg_perigee_deg": 208.9869,
      "mean_anomaly_deg": 151.1241,
      "mean_motion_rev_day": 15.77890415
    },
    {
      "epoch": "2026-03-30T11:21:05.996448Z",
      "apogee_km": 337.96112420524696,
      "perigee_km": 334.20720315263407,
      "latitude_deg": -2.0948422003275833e-05,
      "longitude_deg": -176.53380371923083,
      "height_km": 340.88377961012725,
      "semi_major_axis_km": 6714.221163678941,
      "eccentricity": 0.00027955,
      "inclination_deg": 97.3539,
      "raan_deg": 181.6054,
      "arg_perigee_deg": 209.8941,
      "mean_anomaly_deg": 150.2166,
      "mean_motion_rev_day": 15.78008354
    },
    {
      "epoch": "2026-03-30T18:57:39.419712Z",
      "apogee_km": 337.44923660194945,
      "perigee_km": 333.8282287982747,
      "latitude_deg": -1.3700426721840715e-05,
      "longitude_deg": 69.35112991755264,
      "height_km": 340.3164293533735,
      "semi_major_axis_km": 6713.775732700112,
      "eccentricity": 0.00026967,
      "inclination_deg": 97.3538,
      "raan_deg": 181.9421,
      "arg_perigee_deg": 213.7723,
      "mean_anomaly_deg": 146.3372,
      "mean_motion_rev_day": 15.78165398
    },
    {
      "epoch": "2026-03-31T16:15:46.905408Z",
      "apogee_km": 336.3231039010461,
      "perigee_km": 332.6365347438732,
      "latitude_deg": 5.64966398542062e-05,
      "longitude_deg": 109.88988638970858,
      "height_km": 339.1497670271105,
      "semi_major_axis_km": 6712.616819322459,
      "eccentricity": 0.0002746,
      "inclination_deg": 97.3541,
      "raan_deg": 182.8869,
      "arg_perigee_deg": 215.7173,
      "mean_anomaly_deg": 144.3911,
      "mean_motion_rev_day": 15.78574114
    },
    {
      "epoch": "2026-04-01T12:02:19.103136Z",
      "apogee_km": 335.2970018651167,
      "perigee_km": 331.5747635443686,
      "latitude_deg": -4.966902850942487e-05,
      "longitude_deg": 173.32118842118425,
      "height_km": 338.10668687193447,
      "semi_major_axis_km": 6711.572882704742,
      "eccentricity": 0.0002773,
      "inclination_deg": 97.3532,
      "raan_deg": 183.7645,
      "arg_perigee_deg": 216.4601,
      "mean_anomaly_deg": 143.6477,
      "mean_motion_rev_day": 15.78942432
    },
    {
      "epoch": "2026-04-02T16:55:57.398016Z",
      "apogee_km": 333.3414827743709,
      "perigee_km": 329.87670408664417,
      "latitude_deg": -5.8321819058141026e-05,
      "longitude_deg": 100.00749542140598,
      "height_km": 336.14939483915,
      "semi_major_axis_km": 6709.746093430507,
      "eccentricity": 0.00025819,
      "inclination_deg": 97.3516,
      "raan_deg": 185.047,
      "arg_perigee_deg": 217.9789,
      "mean_anomaly_deg": 142.1296,
      "mean_motion_rev_day": 15.79587298
    },
    {
      "epoch": "2026-04-03T18:46:24.997728Z",
      "apogee_km": 331.33735689279456,
      "perigee_km": 327.972728404201,
      "latitude_deg": -6.098220886634557e-05,
      "longitude_deg": 72.47964495276182,
      "height_km": 334.158798786534,
      "semi_major_axis_km": 6707.792042648497,
      "eccentricity": 0.0002508,
      "inclination_deg": 97.3516,
      "raan_deg": 186.1954,
      "arg_perigee_deg": 217.8641,
      "mean_anomaly_deg": 142.245,
      "mean_motion_rev_day": 15.80277574
    },
    {
      "epoch": "2026-04-04T19:05:03.558912Z",
      "apogee_km": 329.5068877141175,
      "perigee_km": 326.23167424648545,
      "latitude_deg": -6.0202070158046985e-05,
      "longitude_deg": 67.90116703762612,
      "height_km": 332.2603451310166,
      "semi_major_axis_km": 6706.006280980301,
      "eccentricity": 0.0002442,
      "inclination_deg": 97.3508,
      "raan_deg": 187.276,
      "arg_perigee_deg": 222.1308,
      "mean_anomaly_deg": 137.9772,
      "mean_motion_rev_day": 15.80908841
    },
    {
      "epoch": "2026-04-05T05:43:02.811072Z",
      "apogee_km": 328.73673739662445,
      "perigee_km": 325.625469796556,
      "latitude_deg": -4.807566821086926e-05,
      "longitude_deg": -91.55950609110324,
      "height_km": 331.4283091331044,
      "semi_major_axis_km": 6705.31810359659,
      "eccentricity": 0.000232,
      "inclination_deg": 97.3503,
      "raan_deg": 187.7489,
      "arg_perigee_deg": 226.5292,
      "mean_anomaly_deg": 133.5783,
      "mean_motion_rev_day": 15.81152224
    },
    {
      "epoch": "2026-04-05T17:52:03.707904Z",
      "apogee_km": 327.9749529495184,
      "perigee_km": 324.9015756483641,
      "latitude_deg": -4.451913176144297e-05,
      "longitude_deg": 86.22866274560683,
      "height_km": 330.52230429697846,
      "semi_major_axis_km": 6704.575264298941,
      "eccentricity": 0.0002292,
      "inclination_deg": 97.3504,
      "raan_deg": 188.2898,
      "arg_perigee_deg": 233.8466,
      "mean_anomaly_deg": 126.259,
      "mean_motion_rev_day": 15.81415009
    },
    {
      "epoch": "2026-04-06T04:29:50.827776Z",
      "apogee_km": 327.4402551924586,
      "perigee_km": 324.1235583525213,
      "latitude_deg": 2.411356741010054e-05,
      "longitude_deg": -73.18072832768584,
      "height_km": 330.0544461494036,
      "semi_major_axis_km": 6703.918906772489,
      "eccentricity": 0.00024737,
      "inclination_deg": 97.3504,
      "raan_deg": 188.7633,
      "arg_perigee_deg": 228.6909,
      "mean_anomaly_deg": 131.4147,
      "mean_motion_rev_day": 15.81647261
    },
    {
      "epoch": "2026-04-07T04:47:18.501216Z",
      "apogee_km": 326.103451366992,
      "perigee_km": 322.5337235211182,
      "latitude_deg": 2.0980536195037514e-05,
      "longitude_deg": -77.46063328632306,
      "height_km": 328.552334870064,
      "semi_major_axis_km": 6702.455587444055,
      "eccentricity": 0.0002663,
      "inclination_deg": 97.3488,
      "raan_deg": 189.8463,
      "arg_perigee_deg": 233.7728,
      "mean_anomaly_deg": 126.3295,
      "mean_motion_rev_day": 15.82165261
    },
    {
      "epoch": "2026-04-07T18:26:55.515840Z",
      "apogee_km": 325.30183248176127,
      "perigee_km": 321.81695035822304,
      "latitude_deg": -1.0936746069732376e-05,
      "longitude_deg": 77.68273369703637,
      "height_km": 327.7868769515142,
      "semi_major_axis_km": 6701.696391419992,
      "eccentricity": 0.00026,
      "inclination_deg": 97.3475,
      "raan_deg": 190.4549,
      "arg_perigee_deg": 233.0152,
      "mean_anomaly_deg": 127.0879,
      "mean_motion_rev_day": 15.8243412
    }
  ]
}